OBJECT_NAME,OBJECT_ID,EPOCH,MEAN_MOTION,ECCENTRICITY,INCLINATION,RA_OF_ASC_NODE,ARG_OF_PERICENTER,MEAN_ANOMALY,EPHEMERIS_TYPE,CLASSIFICATION_TYPE,NORAD_CAT_ID,ELEMENT_SET_NO,REV_AT_EPOCH,BSTAR,MEAN_MOTION_DOT,MEAN_MOTION_DDOT
SAUDISAT 5A,2018-102A,2026-07-16T21:24:44.165376,15.28331093,.0010288,97.3049,258.9033,38.4271,321.7700,0,U,43831,999,42021,.10824E-3,.2917E-4,0
SAUDISAT 5B,2018-102C,2026-07-16T20:10:37.784640,15.28573287,.001108,97.3159,261.9763,39.9226,320.2826,0,U,43833,999,42032,.10059E-3,.2726E-4,0
GAOFEN-10R,2019-066A,2026-07-16T20:10:26.327136,14.83059010,.0006795,98.0510,151.6379,48.5361,311.6435,0,U,44622,999,36677,.69496E-4,.511E-5,0
CARTOSAT-3,2019-081A,2026-07-16T20:40:55.464384,15.19188248,.0012912,97.4290,259.2485,53.5890,306.6533,0,U,44804,999,36797,.54218E-4,.1074E-4,0
GAOFEN-12 01,2019-082A,2026-07-16T21:15:28.643616,14.80480231,.0000881,97.8110,203.4825,56.8457,303.2840,0,U,44819,999,35848,.26135E-4,.149E-5,0
CSG-1,2019-092A,2026-07-16T19:45:51.340896,14.82157695,.0001447,97.8897,20.9981,92.5997,267.5381,0,U,44873,999,35586,.32012E-4,.203E-5,0
NEMO-HD,2020-061F,2026-07-16T20:38:33.968832,15.45160147,.0001003,97.1900,259.5223,101.9887,258.1475,0,U,46277,999,32656,.13818E-3,.6462E-4,0
SENTINEL-6A,2020-086A,2026-07-16T16:13:49.060128,12.80930202,.0007781,66.0412,73.8043,269.6984,90.3140,0,U,46984,999,26410,.96185E-4,-.39E-6,0
CAS500-1,2021-022A,2026-07-16T21:09:31.059936,15.20142038,.0005353,97.3862,92.5283,165.2971,194.8421,0,U,47932,999,29527,.14459E-3,.306E-4,0
GAOFEN-12 02,2021-026A,2026-07-16T19:58:40.409760,14.80316693,.0005926,97.9935,195.8939,127.8678,232.3070,0,U,48079,999,28614,.23224E-4,.124E-5,0
PLEIADES NEO 3,2021-034A,2026-07-16T19:58:36.714432,14.81669481,.0001357,97.8943,272.1723,95.2536,264.8832,0,U,48268,999,28204,.71086E-4,.507E-5,0
PLEIADES NEO 4,2021-073E,2026-07-16T20:47:13.282080,14.81673123,.0001344,97.8942,272.2016,91.5893,268.5474,0,U,49070,999,26576,.18721E-4,.95E-6,0
LANDSAT 9,2021-088A,2026-07-16T19:02:18.542688,14.57096185,.0001125,98.2269,267.6103,89.4902,270.6425,0,U,49260,999,25531,.45551E-4,.16E-5,0
CSG-2,2022-008A,2026-07-16T20:34:26.093280,14.82150027,.0001501,97.8885,21.0250,86.7572,273.3813,0,U,51444,999,24098,.25042E-4,.147E-5,0
GAOFEN-12 03,2022-069A,2026-07-16T20:49:02.496864,14.80079234,.0002442,97.8242,84.9849,70.9883,289.1594,0,U,52912,999,21900,.12145E-3,.87E-5,0
SWOT,2022-173A,2026-07-16T20:32:48.155424,14.00172447,.0000235,77.6112,355.2557,71.2066,288.9111,0,U,54754,999,18330,-.15792E-4,-.26E-6,0
GAOFEN-12 04,2023-123A,2026-07-16T21:17:53.722176,14.79777071,.0003428,97.9100,115.4610,46.9481,313.2017,0,U,57654,999,15702,.6713E-4,.454E-5,0
PARS 1,2024-039Q,2026-07-16T21:26:21.057792,15.46312363,.0009569,97.4842,179.7650,21.4321,338.7327,0,U,59065,999,13323,.13575E-3,.6608E-4,0
RESURS-P 4,2024-061A,2026-07-16T20:20:15.467136,15.32285620,.0003233,97.2760,145.2345,87.0342,273.1270,0,U,59371,999,12830,.53446E-4,.159E-4,0
LEGION 1,2024-081A,2026-07-16T18:46:32.543904,15.16849798,.0007737,97.5011,275.3255,263.0786,96.9567,0,U,59625,999,12202,.96611E-4,.1834E-4,0
LEGION 2,2024-081B,2026-07-16T19:30:19.880640,15.16829010,.0010326,97.5011,275.4523,227.3079,132.7285,0,U,59626,999,12203,.99095E-4,.1883E-4,0
ALOS-4 (DAICHI-4),2024-123A,2026-07-16T20:23:03.802848,14.79472676,.0001542,97.9221,294.5995,96.9048,263.2339,0,U,60182,999,11026,.10149E-3,.707E-5,0
LEGION 3,2024-146A,2026-07-16T14:07:54.480000,15.15659955,.000808,45.0017,232.9186,341.6257,18.4328,0,U,60452,999,10648,.80998E-4,.1303E-4,0
LEGION 4,2024-146B,2026-07-16T18:52:13.609632,15.15687862,.0009015,45.0028,323.7279,123.5936,236.5804,0,U,60453,999,10536,.98329E-4,.164E-4,0
SENTINEL-2C,2024-157A,2026-07-16T14:42:53.561088,14.30815932,.0000993,98.5684,271.9774,103.7400,256.3894,0,U,60989,999,9719,.35722E-4,.5E-6,0
IONOSFERA-M 1,2024-199A,2026-07-16T19:13:22.293408,14.22759349,.0002138,98.7132,70.6552,70.7441,289.3968,0,U,61735,999,13191,.29366E-4,.22E-6,0
IONOSFERA-M 2,2024-199B,2026-07-16T20:02:39.331680,14.22762747,.0000564,98.7131,70.5994,127.6663,232.4566,0,U,61736,999,13504,.27994E-4,.19E-6,0
PRSC-EO1,2025-012A,2026-07-16T20:40:22.622880,15.17633501,.0006904,97.4213,269.7393,141.7329,218.4396,0,U,62725,999,8269,.17633E-3,.3483E-4,0
BIOMASS,2025-090A,2026-07-16T11:46:58.016928,14.67535671,.0001447,98.0750,24.3792,88.8226,271.3144,0,U,63772,999,6498,.49666E-4,.234E-5,0
GOSAT-GW (IBUKI GW),2025-141A,2026-07-16T20:22:40.850688,14.67555280,.0001445,98.0565,134.6843,85.1713,274.9656,0,U,64694,999,5619,.54735E-4,.263E-5,0
IONOSFERA-M 3,2025-155A,2026-07-16T21:06:22.821984,14.21490998,.0002336,98.6041,159.0398,110.0431,250.0998,0,U,64876,999,5062,.2269E-4,.7E-7,0
