SAUDISAT 5A             
1 43831U 18102A   26197.89217784  .00002917  00000+0  10824-3 0  9998
2 43831  97.3049 258.9033 0010288  38.4271 321.7700 15.28331093420211
SAUDISAT 5B             
1 43833U 18102C   26197.84071510  .00002726  00000+0  10059-3 0  9998
2 43833  97.3159 261.9763 0011080  39.9226 320.2826 15.28573287420324
GAOFEN-10R              
1 44622U 19066A   26197.84058249  .00000511  00000+0  69496-4 0  9999
2 44622  98.0510 151.6379 0006795  48.5361 311.6435 14.83059010366772
CARTOSAT-3              
1 44804U 19081A   26197.86175306  .00001074  00000+0  54218-4 0  9995
2 44804  97.4290 259.2485 0012912  53.5890 306.6533 15.19188248367978
GAOFEN-12 01            
1 44819U 19082A   26197.88574819  .00000149  00000+0  26135-4 0  9995
2 44819  97.8110 203.4825 0000881  56.8457 303.2840 14.80480231358489
CSG-1                   
1 44873U 19092A   26197.82351089  .00000203  00000+0  32012-4 0  9994
2 44873  97.8897  20.9981 0001447  92.5997 267.5381 14.82157695355869
NEMO-HD                 
1 46277U 20061F   26197.86011538  .00006462  00000+0  13818-3 0  9993
2 46277  97.1900 259.5223 0001003 101.9887 258.1475 15.45160147326568
SENTINEL-6A             
1 46984U 20086A   26197.67626227 -.00000039  00000+0  96185-4 0  9995
2 46984  66.0412  73.8043 0007781 269.6984  90.3140 12.80930202264101
CAS500-1                
1 47932U 21022A   26197.88160949  .00003060  00000+0  14459-3 0  9996
2 47932  97.3862  92.5283 0005353 165.2971 194.8421 15.20142038295278
GAOFEN-12 02            
1 48079U 21026A   26197.83241215  .00000124  00000+0  23224-4 0  9993
2 48079  97.9935 195.8939 0005926 127.8678 232.3070 14.80316693286146
PLEIADES NEO 3          
1 48268U 21034A   26197.83236938  .00000507  00000+0  71086-4 0  9992
2 48268  97.8943 272.1723 0001357  95.2536 264.8832 14.81669481282047
PLEIADES NEO 4          
1 49070U 21073E   26197.86612595  .00000095  00000+0  18721-4 0  9996
2 49070  97.8942 272.2016 0001344  91.5893 268.5474 14.81673123265766
LANDSAT 9               
1 49260U 21088A   26197.79327017  .00000160  00000+0  45551-4 0  9991
2 49260  98.2269 267.6103 0001125  89.4902 270.6425 14.57096185255313
CSG-2                   
1 51444U 22008A   26197.85724645  .00000147  00000+0  25042-4 0  9994
2 51444  97.8885  21.0250 0001501  86.7572 273.3813 14.82150027240987
GAOFEN-12 03            
1 52912U 22069A   26197.86739001  .00000870  00000+0  12145-3 0  9997
2 52912  97.8242  84.9849 0002442  70.9883 289.1594 14.80079234219000
SWOT                    
1 54754U 22173A   26197.85611291 -.00000026  00000+0 -15792-4 0  9995
2 54754  77.6112 355.2557 0000235  71.2066 288.9111 14.00172447183300
GAOFEN-12 04            
1 57654U 23123A   26197.88742734  .00000454  00000+0  67130-4 0  9999
2 57654  97.9100 115.4610 0003428  46.9481 313.2017 14.79777071157024
PARS 1                  
1 59065U 24039Q   26197.89329928  .00006608  00000+0  13575-3 0  9991
2 59065  97.4842 179.7650 0009569  21.4321 338.7327 15.46312363133237
RESURS-P 4              
1 59371U 24061A   26197.84740124  .00001590  00000+0  53446-4 0  9993
2 59371  97.2760 145.2345 0003233  87.0342 273.1270 15.32285620128307
LEGION 1                
1 59625U 24081A   26197.78232111  .00001834  00000+0  96611-4 0  9994
2 59625  97.5011 275.3255 0007737 263.0786  96.9567 15.16849798122024
LEGION 2                
1 59626U 24081B   26197.81273010  .00001883  00000+0  99095-4 0  9995
2 59626  97.5011 275.4523 0010326 227.3079 132.7285 15.16829010122032
ALOS-4 (DAICHI-4)       
1 60182U 24123A   26197.84934957  .00000707  00000+0  10149-3 0  9994
2 60182  97.9221 294.5995 0001542  96.9048 263.2339 14.79472676110261
LEGION 3                
1 60452U 24146A   26197.58882500  .00001303  00000+0  80998-4 0  9999
2 60452  45.0017 232.9186 0008080 341.6257  18.4328 15.15659955106487
LEGION 4                
1 60453U 24146B   26197.78626863  .00001640  00000+0  98329-4 0  9991
2 60453  45.0028 323.7279 0009015 123.5936 236.5804 15.15687862105368
SENTINEL-2C             
1 60989U 24157A   26197.61311992  .00000050  00000+0  35722-4 0  9995
2 60989  98.5684 271.9774 0000993 103.7400 256.3894 14.30815932 97196
IONOSFERA-M 1           
1 61735U 24199A   26197.80095247  .00000022  00000+0  29366-4 0  9990
2 61735  98.7132  70.6552 0002138  70.7441 289.3968 14.22759349131912
IONOSFERA-M 2           
1 61736U 24199B   26197.83517745  .00000019  00000+0  27994-4 0  9997
2 61736  98.7131  70.5994 0000564 127.6663 232.4566 14.22762747135047
PRSC-EO1                
1 62725U 25012A   26197.86137295  .00003483  00000+0  17633-3 0  9998
2 62725  97.4213 269.7393 0006904 141.7329 218.4396 15.17633501 82695
BIOMASS                 
1 63772U 25090A   26197.49094927  .00000234  00000+0  49666-4 0  9993
2 63772  98.0750  24.3792 0001447  88.8226 271.3144 14.67535671 64987
GOSAT-GW (IBUKI GW)     
1 64694U 25141A   26197.84908392  .00000263  00000+0  54735-4 0  9998
2 64694  98.0565 134.6843 0001445  85.1713 274.9656 14.67555280 56195
IONOSFERA-M 3           
1 64876U 25155A   26197.87943081  .00000007  00000+0  22690-4 0  9993
2 64876  98.6041 159.0398 0002336 110.0431 250.0998 14.21490998 50623
